{"fetched_at":"2026-07-09T18:17:28.928Z","source":"https://celestrak.org/NORAD/elements/gp.php?NAME=TIGER&FORMAT=JSON","constellation":"oq-technology","records":[{"OBJECT_NAME":"TIGER-8","OBJECT_ID":"2024-043Y","EPOCH":"2026-07-08T22:01:02.145216","CLASSIFICATION_TYPE":"U","MEAN_MOTION":15.45084956,"ECCENTRICITY":0.00088219,"INCLINATION":97.5565,"RA_OF_ASC_NODE":339.4104,"ARG_OF_PERICENTER":121.7549,"MEAN_ANOMALY":238.456,"EPHEMERIS_TYPE":0,"NORAD_CAT_ID":59120,"ELEMENT_SET_NO":999,"REV_AT_EPOCH":13114,"BSTAR":0.00015161257,"MEAN_MOTION_DOT":0.00007083,"MEAN_MOTION_DDOT":0},{"OBJECT_NAME":"TIGER-7","OBJECT_ID":"2024-043AV","EPOCH":"2026-07-08T09:17:32.682912","CLASSIFICATION_TYPE":"U","MEAN_MOTION":15.49237051,"ECCENTRICITY":0.00068492,"INCLINATION":97.5507,"RA_OF_ASC_NODE":341.3273,"ARG_OF_PERICENTER":95.5452,"MEAN_ANOMALY":264.658,"EPHEMERIS_TYPE":0,"NORAD_CAT_ID":59141,"ELEMENT_SET_NO":999,"REV_AT_EPOCH":13125,"BSTAR":0.00015926194,"MEAN_MOTION_DOT":0.00008597,"MEAN_MOTION_DDOT":0}]}
