TIGER-8                 
1 59120U 24043Y   26189.91738594  .00007083  00000+0  15161-3 0  9996
2 59120  97.5565 339.4104 0008821 121.7549 238.4560 15.45084956131143
TIGER-7                 
1 59141U 24043AV  26189.38718383  .00008597  00000+0  15926-3 0  9994
2 59141  97.5507 341.3273 0006849  95.5452 264.6580 15.49237051131255
